hotel,address,latitude,longitude
AT,Vienna,"['Hotel Eitlj rg', 'Eitljörg, Filmteichstraße, Siedlung Südost, KG Oberlaa Stadt, Favoriten, Stierofen, Wien, 1100, Österreich', 48.1513676, 16.4064709]"
AT,Vienna,"['Club Hotel Cortina', '132, Hietzinger Hauptstraße, KG Ober St. Veit, Hietzing, Wien, 1130, Österreich', 48.1877942, 16.2727214]"
AT,Vienna,"['Hotel Am Schubertring', 'Schubert Bar, 11, Schubertring, Kärntner Viertel, KG Innere Stadt, Innere Stadt, Wien, 1010, Österreich', 48.2017277, 16.375463]"
AT,Vienna,"['Hotel Palais Strudlhof', 'Hotel & Palais Strudlhof, Strudlhofgasse, Thurygrund II, KG Alsergrund, Alsergrund, Wien, 1090, Österreich', 48.2217697, 16.3578738]"
AT,Vienna,"['Austria Trend Hotel Rathauspark Wien', '17, Rathausstraße, KG Alsergrund, Alsergrund, Wien, 1010, Österreich', 48.2133054, 16.3567884]"
AT,Vienna,"['Park Hyatt Vienna', '4, Bognergasse, Widmerviertel, KG Innere Stadt, Innere Stadt, Wien, 1010, Österreich', 48.2105243, 16.3683592]"
AT,Vienna,"['Austria Trend Hotel Savoyen Vienna', 'Austria Trend Hotel Savoyen, 16, Rennweg, Botschaftsviertel, KG Landstraße, Landstraße, Wien, 1030, Österreich', 48.1950444, 16.3844751]"
AT,Vienna,"['Austria Trend Hotel Ananas Wien', '8-10, Sonnenhofgasse, KG Margarethen, Margareten, Wien, 1050, Österreich', 48.1915401, 16.3546263]"
AT,Vienna,"['Falkensteiner Hotel Wien Margareten', 'Hotel Margareten Wien, 142, Margaretengürtel, KG Margarethen, Margareten, Wien, 1050, Österreich', 48.1868107, 16.3440157]"
AT,Vienna,"['NH Collection Wien Zentrum', '78-80, Mariahilfer Straße, Obere Windmühle, KG Mariahilf, Mariahilf, Wien, 1070, Österreich', 48.1979979, 16.3483314]"
AT,Vienna,"['Le Meridien Vienna', 'Le Meridien, Opernring, Kärntner Viertel, KG Innere Stadt, Innere Stadt, Wien, 1010, Österreich', 48.2027296, 16.3661211]"
AT,Vienna,"['FourSide Hotel Vienna City Center', 'Ramada Encore, 11, Grieshofgasse, KG Meidling, Meidling, Kabelwerk, Wien, 1120, Österreich', 48.1825159, 16.3322428]"
AT,Vienna,"['Austria Trend Hotel Bosei Wien', 'Hotel Bosei, 7b, Gutheil-Schoder-Gasse, KG Inzersdorf Stadt, Favoriten, Wien, 1100, Österreich', 48.1629737, 16.3404024]"
AT,Vienna,"['Arthotel ANA Westbahn', '1, Pelzgasse, Nibelungenviertel, KG Fünfhaus, Rudolfsheim-Fünfhaus, Wien, 1150, Österreich', 48.1979514, 16.336318]"
AT,Vienna,"['Aparthotel Adagio Vienna City', '2, Uraniastraße, KG Innere Stadt, Innere Stadt, Wien, 1010, Österreich', 48.2110845, 16.3838405]"
AT,Vienna,"['Hotel Lam e', '15, Rotenturmstraße, Stubenviertel, KG Innere Stadt, Innere Stadt, Wien, 1010, Österreich', 48.2102677, 16.3741269]"
AT,Vienna,"['Courtyard by Marriott Vienna Schoenbrunn', 'Courtyard Vienna Schönbrunn, 38-40, Schönbrunner Schlossstraße, Obermeidling, KG Meidling, Meidling, Kabelwerk, Wien, 1120, Österreich', 48.184732, 16.3211959]"
AT,Vienna,"['Hilton Vienna', '2, Landstraßer Hauptstraße, Botschaftsviertel, KG Landstraße, Landstraße, Wien, 1030, Österreich', 48.2062268, 16.3833767]"
AT,Vienna,"['Vienna Marriott Hotel', 'Botschaft der Vereinigten Staaten (Konsularabteilung), 12a, Parkring, Stubenviertel, KG Innere Stadt, Innere Stadt, Wien, 1010, Österreich', 48.2050967, 16.3770928]"
AT,Vienna,"['Hotel Schild', 'Schild, 97-99, Neustift am Walde, KG Neustift am Walde, Döbling, Wien, 1190, Österreich', 48.251195, 16.2989165]"
AT,Vienna,"['Holiday Inn Vienna City', 'Holiday Inn Vienna City, 53, Margaretenstraße, Nikolsdorf, KG Margarethen, Margareten, Wien, 1050, Österreich', 48.1935593, 16.3616098]"
AT,Vienna,"['Sofitel Vienna Stephansdom', 'Sofitel Vienna Stephansdom, Praterstraße, Karmeliterviertel, KG Leopoldstadt, Leopoldstadt, Wien, 1020, Österreich', 48.212857, 16.37986]"
AT,Vienna,"['Hotel Ambassador', 'Hotel Ambassador, 22, Kärntner Straße, Kärntner Viertel, KG Innere Stadt, Innere Stadt, Wien, 1010, Österreich', 48.2057193, 16.3710878]"
AT,Vienna,"['Der Wilhelmshof', '4, Kleine Stadtgutgasse, Jägerzeile, KG Leopoldstadt, Leopoldstadt, Wien, 1020, Österreich', 48.2185837, 16.3881339]"
AT,Vienna,"['Best Western Hotel Pension Arenberg Wien Zentrum', 'Arenberg, Stubenring, Stubenviertel, KG Innere Stadt, Innere Stadt, Wien, 1010, Österreich', 48.2107358, 16.382147]"
AT,Vienna,"['Hotel Domizil', '2, Grünangergasse, Stubenviertel, KG Innere Stadt, Innere Stadt, Wien, 1010, Österreich', 48.2080479, 16.375612]"
AT,Vienna,"['Hotel Nestroy Wien', '7, Rotensterngasse, Afrikanerviertel, KG Leopoldstadt, Leopoldstadt, Wien, 1020, Österreich', 48.2178332, 16.3821636]"
AT,Vienna,"['Best Western Premier Kaiserhof Wien', 'Kaiserhof, 10, Frankenberggasse, Freihausviertel, KG Wieden, Wieden, Wien, 1040, Österreich', 48.1975497, 16.3686397]"
AT,Vienna,"['Hotel Sacher Wien', 'Hotel Sacher, 4, Philharmonikerstraße, Kärntner Viertel, KG Innere Stadt, Innere Stadt, Wien, 1010, Österreich', 48.2038793, 16.3698086]"
AT,Vienna,"['Austria Trend Hotel Park Royal Palace Vienna', 'Austria Trend Hotel Park Royal Palace Vienna, 8, Schlossallee, KG Penzing, Penzing, Wien, 1140, Österreich', 48.191339, 16.3165873]"
AT,Vienna,"['Small Luxury Hotel Altstadt Vienna', 'Altstadt, 41, Kirchengasse, Lerchenfeld, KG Neubau, Neubau, Wien, 1070, Österreich', 48.2047761, 16.3512515]"
AT,Vienna,"['Austria Trend Hotel Anatol Wien', 'Austria Trend Hotel Anatol, 26, Webgasse, Obere Windmühle, KG Mariahilf, Mariahilf, Wien, 1060, Österreich', 48.1945774, 16.346356]"
AT,Vienna,"['Das Triest Hotel', 'Das Triest, 12, Wiedner Hauptstraße, Freihausviertel, KG Wieden, Wieden, Wien, 1040, Österreich', 48.1974036, 16.3673003]"
AT,Vienna,"['Hotel J ger', '187, Hernalser Hauptstraße, Frauenfeld, KG Dornbach, Hernals, Wien, 1170, Österreich', 48.2238463, 16.3138357]"
AT,Vienna,"['Hotel Arkadenhof', 'Arkadenhof, 5, Viriotgasse, Thurygrund II, KG Alsergrund, Alsergrund, Wien, 1090, Österreich', 48.2307014, 16.3552189]"
AT,Vienna,"['Boutiquehotel Das Tyrol', '17, Mariahilfer Straße, Untere Windmühle, KG Mariahilf, Mariahilf, Wien, 1060, Österreich', 48.2008957, 16.3592496]"
