hotel,address,latitude,longitude
ES,Barcelona,"['Hilton Diagonal Mar Barcelona', 'Hilton Diagonal Mar Barcelona, 262-264, Passeig del Taulat, Diagonal Mar i el Front Marítim del Poblenou, Sant Martí, Barcelona, BCN, CAT, 08019, España', 41.4084334, 2.2178205]"
ES,Barcelona,"['Hotel Barcelona Universal', 'A la Turca, Avinguda del Paral·lel, el Raval, Ciutat Vella, Barcelona, BCN, CAT, 08003, España', 41.375237, 2.1684058]"
ES,Barcelona,"['Hotel Vilamar', ""Hotel Vilamari, 34-36, Carrer de Vilamarí, la Nova Esquerra de l'Eixample, Eixample, Barcelona, BCN, CAT, 08014, España"", 41.3766732, 2.1524478]"
ES,Barcelona,"['Hilton Barcelona', '49, Carrer del Doctor Ibáñez, les Corts, Barcelona, BCN, CAT, 08014, España', 41.388682, 2.1316368]"
ES,Barcelona,"['Duquesa de Cardona', 'Capitania General, Carrer de la Mercè, el Gòtic, Ciutat Vella, Barcelona, BCN, CAT, 08003, España', 41.3798658, 2.1805271]"
ES,Barcelona,"['Hotel Balmes', ""216, Carrer de Mallorca, l'Antiga Esquerra de l'Eixample, Eixample, Barcelona, BCN, CAT, 08014, España"", 41.3910621, 2.1593373]"
ES,Barcelona,"['Royal Passeig de Gracia', ""84, Passeig de Gràcia, la Dreta de l'Eixample, Eixample, Barcelona, BCN, CAT, 08023, España"", 41.3946775, 2.162638]"
ES,Barcelona,"['Ofelias Hotel 4 Sup', 'Mercat de Fort Pienc, Plaça de Fort Pienc, el Fort Pienc, Eixample, Barcelona, BCN, CAT, 08003, España', 41.3957584, 2.1822402]"
ES,Barcelona,"['Hotel Serhs Rivoli Rambla', 'Hotel Serhs Rivoli Rambla, la Rambla, el Gòtic, Ciutat Vella, Barcelona, BCN, CAT, 08003, España', 41.3843222, 2.1712893]"
ES,Barcelona,"['Eurostars Bcn Design', ""29, 31, Passeig de Gràcia, la Dreta de l'Eixample, Eixample, Barcelona, BCN, CAT, 08003, España"", 41.3907208, 2.1660732]"
ES,Barcelona,"['Hotel Well and Come', ""Hotel Well and Come, 158, Carrer de Girona, la Dreta de l'Eixample, Eixample, Barcelona, BCN, CAT, 08037, España"", 41.3991773, 2.1656134]"
ES,Barcelona,"['NH Hesperia Barcelona Presidente', '570, Avinguda Diagonal, Galvany, Sant Gervasi - Galvany, Eixample, Barcelona, BCN, CAT, 08021, España', 41.3941338, 2.1489569]"
ES,Barcelona,"['Mercer House B ria BCN', '28, Via Laietana, el Gòtic, Ciutat Vella, Barcelona, BCN, CAT, 08003, España', 41.3846844, 2.1791065]"
ES,Barcelona,"['Eurohotel Diagonal Port', ""Jardins de Jaime Gil de Biedma, Carrer d'Espronceda, Diagonal Mar i el Front Marítim del Poblenou, Sant Martí, Barcelona, BCN, CAT, 08020, España"", 41.4006708, 2.2087844]"
ES,Barcelona,"['Negresco Princess 4 Sup', ""Ribes & Casals, 7, Carrer de Roger de Llúria, la Dreta de l'Eixample, Eixample, Barcelona, BCN, CAT, 08010, España"", 41.3905166, 2.1725643]"
ES,Barcelona,"['The One Barcelona GL', ""The One, Carrer de Provença, la Dreta de l'Eixample, Eixample, Barcelona, BCN, CAT, 08023, España"", 41.3961448, 2.1631674]"
ES,Barcelona,"['Sunotel Club Central', '155, Carrer de València, la Sagrada Família, Eixample, Barcelona, BCN, CAT, 08003, España', 41.38793, 2.1568061]"
ES,Barcelona,"['Ohla Eixample', ""289, 291, Carrer de Còrsega, l'Antiga Esquerra de l'Eixample, Eixample, Barcelona, BCN, CAT, 08014, España"", 41.3944574, 2.1564353]"
ES,Barcelona,"['Hotel The Serras', 'La Plata, 28, Carrer de la Mercè, el Gòtic, Ciutat Vella, Barcelona, BCN, CAT, 08003, España', 41.3801815, 2.180688]"
ES,Barcelona,"['Barcelona Princess', 'Hotel Barcelona Princess, 1, Avinguda Diagonal, el Besòs i el Maresme, Sant Martí, Barcelona, BCN, CAT, 08019, España', 41.4109715, 2.2186535]"
ES,Barcelona,"['NH Collection Barcelona Gran Hotel Calder n', ""NH Calderón, 26, Rambla de Catalunya, la Dreta de l'Eixample, Eixample, Barcelona, BCN, CAT, 08003, España"", 41.3894654, 2.1662651]"
ES,Barcelona,"['Hotel Granados 83', ""83, Carrer d'Enric Granados, l'Antiga Esquerra de l'Eixample, Eixample, Barcelona, BCN, CAT, 08014, España"", 41.391843, 2.156844]"
ES,Barcelona,"['Hotel Balmoral', '1, Via Augusta, la Vila de Gràcia, Eixample, Barcelona, BCN, CAT, 08023, España', 41.3961294, 2.1551626]"
ES,Barcelona,"['Primero Primera', 'Hotel Primero Primera, 25, Carrer del Doctor Carulla, les Tres Torres, Sarrià - Sant Gervasi, Barcelona, BCN, CAT, 08017, España', 41.4002812, 2.1297427]"
ES,Barcelona,"['Cotton House Hotel Autograph Collection', ""Batubar, 670, Gran Via de les Corts Catalanes, la Dreta de l'Eixample, Eixample, Barcelona, BCN, CAT, 08003, España"", 41.3915897, 2.1720108]"
ES,Barcelona,"['Mercer Hotel Barcelona', 'l antic bocoi del gotic, Carrer del Sots-tinent Navarro, el Gòtic, Ciutat Vella, Barcelona, BCN, CAT, 08003, España', 41.3827, 2.1791999]"
ES,Barcelona,"['Silken Concordia', 'Silken Concordia, Avinguda del Paral·lel, el Poble-sec, Sants-Montjuïc, Barcelona, BCN, CAT, 08014, España', 41.3747873, 2.1611846]"
ES,Barcelona,"['Barcel Sants', 'Exact Change, Plaça dels Països Catalans, Sants, Sants-Montjuïc, Barcelona, BCN, CAT, 08014, España', 41.3798964, 2.1412433]"
ES,Barcelona,"['W Barcelona', 'W Barcelona, 1, Passeig Mare Nostrum, la Barceloneta, Ciutat Vella, Barcelona, BCN, CAT, 08039, España', 41.368437, 2.1901534]"
ES,Barcelona,"['Catalonia Catedral', 'CER el Cle, Carrer dels Arcs, el Gòtic, Ciutat Vella, Barcelona, BCN, CAT, 08003, España', 41.3846637, 2.1740902]"
ES,Barcelona,"['Silken Gran Hotel Havana', ""647, Gran Via de les Corts Catalanes, la Dreta de l'Eixample, Eixample, Barcelona, BCN, CAT, 08003, España"", 41.3927101, 2.1722139]"
ES,Barcelona,"['Catalonia Diagonal Centro', ""142, 146, Carrer de Balmes, l'Antiga Esquerra de l'Eixample, Eixample, Barcelona, BCN, CAT, 08023, España"", 41.3938632, 2.1568039]"
ES,Barcelona,"['The Wittmore Adults Only', 'Unknown, Carrer del Regomir, el Gòtic, Ciutat Vella, Barcelona, BCN, CAT, 08003, España', 41.380939, 2.1796095]"
ES,Barcelona,"['Catalonia Barcelona Plaza', ""Plaça d'Espanya, Gran Via de les Corts Catalanes, Hostafrancs, Eixample, Barcelona, BCN, CAT, 08014, España"", 41.3750293, 2.1491172]"
ES,Barcelona,"['Olivia Balmes Hotel', ""115, 117, Carrer de Balmes, l'Antiga Esquerra de l'Eixample, Eixample, Barcelona, BCN, CAT, 08014, España"", 41.392095, 2.158493]"
ES,Barcelona,"['NH Barcelona Stadium', 'Mercadona, Travessera de les Corts, la Maternitat i Sant Ramon, les Corts, Barcelona, BCN, CAT, 08014, España', 41.3812574, 2.1269078]"
ES,Barcelona,"['The Corner Hotel', ""178, Carrer de Mallorca, l'Antiga Esquerra de l'Eixample, Eixample, Barcelona, BCN, CAT, 08014, España"", 41.3890578, 2.1565948]"
ES,Barcelona,"['Col n Hotel Barcelona', 'Hotel Colon, Avinguda de la Catedral, el Gòtic, Ciutat Vella, Barcelona, BCN, CAT, 08003, España', 41.3849613, 2.1756666]"
ES,Barcelona,"['H10 Urquinaona Plaza', ""6, Plaça d'Urquinaona, la Dreta de l'Eixample, Eixample, Barcelona, BCN, CAT, 08010, España"", 41.3892128, 2.1726015]"
ES,Barcelona,"['Abba Sants', 'Hotel Abba, Carrer de Numància, les Corts, Barcelona, BCN, CAT, 08014, España', 41.3825777, 2.1400103]"
ES,Barcelona,"['Acta Atrium Palace', ""L'Àtrium, 656, Gran Via de les Corts Catalanes, la Dreta de l'Eixample, Eixample, Barcelona, BCN, CAT, 08003, España"", 41.390913, 2.1706981]"
ES,Barcelona,"['Sansi Pedralbes', 'Hotel Sansi, 1-3, Avinguda de Pearson, Pedralbes, les Corts, Barcelona, BCN, CAT, 08034, España', 41.39367, 2.1115418]"
ES,Barcelona,"['Crowne Plaza Barcelona Fira Center', '237 - Rius i Taulet 4, Avinguda de Rius i Taulet, el Poble-sec, Sants-Montjuïc, Barcelona, BCN, CAT, 08014, España', 41.3725246, 2.1540788]"
ES,Barcelona,"['Exe Laietana Palace', ""Casa Santana i Soler, Plaça d'Emili Vilanova, el Gòtic, Ciutat Vella, Barcelona, BCN, CAT, 08003, España"", 41.3833541, 2.1794038]"
ES,Barcelona,"['U232 Hotel', ""Hotel U232, Carrer del Comte d'Urgell, l'Antiga Esquerra de l'Eixample, Eixample, Barcelona, BCN, CAT, 08014, España"", 41.3895237, 2.1490307]"
ES,Barcelona,"['Alma Barcelona GL', ""269, 271, Carrer de Mallorca, la Dreta de l'Eixample, Eixample, Barcelona, BCN, CAT, 08003, España"", 41.3945074, 2.1632659]"
ES,Barcelona,"['Eurostars Cristal Palace', ""257, Carrer de la Diputació, la Dreta de l'Eixample, Eixample, Barcelona, BCN, CAT, 08003, España"", 41.3897945, 2.1660575]"
ES,Barcelona,"['The Level at Melia Barcelona Sky', 'Meliá Barcelona Sky, 272, Carrer de Pere IV, Provençals del Poblenou, Sant Martí, Barcelona, BCN, CAT, 08005, España', 41.406146, 2.2008636]"
ES,Barcelona,"['ABaC Restaurant Hotel Barcelona GL Monumento', 'ABaC, Avinguda del Tibidabo, la Bonanova, Sant Gervasi - la Bonanova, Sarrià - Sant Gervasi, Barcelona, BCN, CAT, 08023, España', 41.4106944, 2.136294]"
ES,Barcelona,"['TWO Hotel Barcelona by Axel 4 Sup Adults Only', '90, Carrer de Calàbria, Project Area Sant Antoni, Sant Antoni, Eixample, Barcelona, BCN, CAT, 08014, España', 41.37913, 2.1561186]"
ES,Barcelona,"['Hotel Espa a Ramblas', 'Fonda Espanya, Carrer de Sant Pau, el Raval, Ciutat Vella, Barcelona, BCN, CAT, 08003, España', 41.3799209, 2.1728181]"
ES,Barcelona,"['Hotel DO Pla a Reial G L', 'Terrassa Do, Plaça Reial, el Gòtic, Ciutat Vella, Barcelona, BCN, CAT, 08003, España', 41.3799929, 2.1748256]"
ES,Barcelona,"['Room Mate Gerard', ""CEJFE, 40, Carrer d'Ausiàs Marc, la Dreta de l'Eixample, Eixample, Barcelona, BCN, CAT, 08010, España"", 41.3919114, 2.1765438]"
ES,Barcelona,"['Aparthotel Mariano Cubi Barcelona', ""Amnistia Internacional Catalunya, 19-21, Carrer d'Alfons XII, Sant Gervasi - Galvany, Sarrià - Sant Gervasi, Barcelona, BCN, CAT, 08006, España"", 41.3982129, 2.1494179]"
ES,Barcelona,"['Condes de Barcelona', ""73, Passeig de Gràcia, la Dreta de l'Eixample, Eixample, Barcelona, BCN, CAT, 08003, España"", 41.3935497, 2.1627098]"
ES,Barcelona,"['Roger de Ll ria', ""Roger De Lluria, Carrer de Roger de Llúria, la Dreta de l'Eixample, Eixample, Barcelona, BCN, CAT, 08003, España"", 41.3910786, 2.1717285]"
ES,Barcelona,"['H10 Port Vell 4 Sup', 'Port Vell, Pas de Sota Muralla, Sant Pere, Santa Caterina i la Ribera, Ciutat Vella, Barcelona, BCN, CAT, 08003, España', 41.3815625, 2.1838458]"
ES,Barcelona,"['Upper Diagonal', 'Escola Bressol Oikia, Passeig de Manuel Girona, Pedralbes, les Corts, Barcelona, BCN, CAT, 08014, España', 41.39038, 2.121]"
ES,Barcelona,"['Hotel Garbi Millenni', 'Hotel Millenni, Carrer de les Flors, el Raval, Ciutat Vella, Barcelona, BCN, CAT, 08003, España', 41.3759896, 2.167148]"
ES,Barcelona,"['K K Hotel Picasso', 'K+K Hotel Picasso, 26-30, Passeig de Picasso, Sant Pere, Santa Caterina i la Ribera, Ciutat Vella, Barcelona, BCN, CAT, 08003, España', 41.3866227, 2.1840722]"
ES,Barcelona,"['Guitart Grand Passage', ""214, Carrer de Muntaner, l'Antiga Esquerra de l'Eixample, Eixample, Barcelona, BCN, CAT, 08014, España"", 41.3936071, 2.1504611]"
ES,Barcelona,"['H10 Cubik 4 Sup', 'HCC Montblanc, 61, Via Laietana, el Gòtic, Ciutat Vella, Barcelona, BCN, CAT, 08003, España', 41.388024, 2.1731556]"
ES,Barcelona,"['Barcel Raval', 'Barceló Raval, 25, Rambla del Raval, el Raval, Ciutat Vella, Barcelona, BCN, CAT, 08001, España', 41.3790126, 2.1696339]"
ES,Barcelona,"['Gran Hotel La Florida', 'Gran Hotel La Florida, Camí de Tenzing Norgay, Vallvidrera, el Tibidabo i les Planes, Sarrià - Sant Gervasi, Barcelona, BCN, CAT, 08035, España', 41.4253332, 2.1211028]"
ES,Barcelona,"['Abba Garden', 'abba Garden hotel, 33, Carrer de Santa Rosa, Pedralbes, les Corts, Esplugues de Llobregat, BCN, CAT, 08950, España', 41.3854716, 2.1018835]"
ES,Barcelona,"['Barcelona Hotel Colonial', ""Hotel Colonial, Carrer d'Àngel J. Baixeras, el Gòtic, Ciutat Vella, Barcelona, BCN, CAT, 08003, España"", 41.3822909, 2.1807447]"
ES,Barcelona,"['Mandarin Oriental Barcelona', ""Mandarin Oriental, 38-40, Passeig de Gràcia, la Dreta de l'Eixample, Eixample, Barcelona, BCN, CAT, 08003, España"", 41.391393, 2.1668467]"
ES,Barcelona,"['Hotel Neri', 'Museu del Calçat, Plaça de Sant Felip Neri, el Gòtic, Ciutat Vella, Barcelona, BCN, CAT, 08003, España', 41.3832498, 2.1753483]"
ES,Barcelona,"['H10 Itaca', ""H10 Itaca, 22, 28, Avinguda de Roma, la Nova Esquerra de l'Eixample, Eixample, Barcelona, BCN, CAT, 08014, España"", 41.3810311, 2.1455516]"
ES,Barcelona,"['Hotel Regina', 'Subway, Carrer de Pelai, el Raval, Eixample, Barcelona, BCN, CAT, 08003, España', 41.3858891, 2.1681652]"
ES,Barcelona,"['Hotel Gran Derby Suites', '28, Carrer de Loreto, les Corts, Barcelona, BCN, CAT, 08014, España', 41.3900104, 2.1422396]"
ES,Barcelona,"['Evenia Rossello', ""Evenia Rosselló, 191, Carrer del Rosselló, l'Antiga Esquerra de l'Eixample, Eixample, Barcelona, BCN, CAT, 08014, España"", 41.3920254, 2.1554675]"
ES,Barcelona,"['Vincci Mae', '6, Travessera de Gràcia, Galvany, Sant Gervasi - Galvany, Sarrià - Sant Gervasi, Barcelona, BCN, CAT, 08014, España', 41.3933943, 2.1461315]"
ES,Barcelona,"['Hotel Spa Villa Olimpica Suites', ""Villa Olimpica Suites Barcelona, Carrer d'Àlaba, el Parc i la Llacuna del Poblenou, Sant Martí, Barcelona, BCN, CAT, 08003, España"", 41.3971434, 2.1921947]"
ES,Barcelona,"['Vilana Hotel', ""El Restaurant, Carrer de l'Esperança, la Bonanova, Sant Gervasi - la Bonanova, Sarrià - Sant Gervasi, Barcelona, BCN, CAT, 08023, España"", 41.4047934, 2.1288527]"
ES,Barcelona,"['Mercure Barcelona Condor', 'Hotel Mercure, Via Augusta, Galvany, Sant Gervasi - Galvany, Sarrià - Sant Gervasi, Barcelona, BCN, CAT, 08023, España', 41.3999934, 2.1452467]"
ES,Barcelona,"['NH Sants Barcelona', '72, 74, Carrer de Numància, les Corts, Barcelona, BCN, CAT, 08014, España', 41.384591, 2.1378107]"
ES,Barcelona,"['Pestana Arena Barcelona', 'Arena, Carrer de Béjar, Hostafrancs, Sants-Montjuïc, Barcelona, BCN, CAT, 08014, España', 41.376801, 2.1460443]"
ES,Barcelona,"['Petit Palace Boqueria Garden', ""Jardins de l'Hotel Petit Palace, Carrer d'Aroles, el Gòtic, Ciutat Vella, Barcelona, BCN, CAT, 08003, España"", 41.3812223, 2.1739622]"
ES,Barcelona,"['Vincci Maritimo', 'A, 356, Carrer de Llull, Diagonal Mar i el Front Marítim del Poblenou, Sant Martí, Barcelona, BCN, CAT, 08029, España', 41.4082054, 2.2124626]"
ES,Barcelona,"['Pol Grace Hotel', 'Pol & Grace Hotel, 49, Carrer de Guillem Tell, Sant Gervasi - Galvany, Sarrià - Sant Gervasi, Barcelona, BCN, CAT, 08006, España', 41.4017465, 2.1477365]"
ES,Barcelona,"['Ohla Barcelona', '61, Via Laietana, el Gòtic, Ciutat Vella, Barcelona, BCN, CAT, 08003, España', 41.3870479, 2.174336]"
ES,Barcelona,"['H10 Art Gallery 4 Sup', ""64, Carrer d'Enric Granados, l'Antiga Esquerra de l'Eixample, Eixample, Barcelona, BCN, CAT, 08023, España"", 41.392018, 2.157066]"
ES,Barcelona,"['Fairmont Rey Juan Carlos I', 'Palau de Congressos de Catalunya, Carrer de la Torre Melina, la Maternitat i Sant Ramon, les Corts, Barcelona, BCN, CAT, 08014, España', 41.3835246, 2.1096141]"
ES,Barcelona,"['Hotel G tico', 'Jocs Mallart, Carrer de Jaume I, el Gòtic, Ciutat Vella, Barcelona, BCN, CAT, 08003, España', 41.3835584, 2.178311]"
ES,Barcelona,"['Hotel Omm', ""373, Avinguda Diagonal, la Dreta de l'Eixample, Eixample, Barcelona, BCN, CAT, 08023, España"", 41.3962468, 2.1609551]"
ES,Barcelona,"['AC Hotel Sants a Marriott Lifestyle Hotel', 'Famdeburguer, Carrer de Riego, Sants, Sants-Montjuïc, Barcelona, BCN, CAT, 08014, España', 41.3775577, 2.1384686]"
ES,Barcelona,"['Hotel Vueling Bcn by HC', ""550, Gran Via de les Corts Catalanes, la Nova Esquerra de l'Eixample, Eixample, Barcelona, BCN, CAT, 08014, España"", 41.3831641, 2.1604736]"
ES,Barcelona,"['Gallery Hotel', ""272, Carrer de Còrsega, la Dreta de l'Eixample, Eixample, Barcelona, BCN, CAT, 08008, España"", 41.3949242, 2.1593099]"
ES,Barcelona,"['H10 Casa Mimosa 4 Sup', ""Restaurant Pau Claris 190, 190, Carrer de Pau Claris, la Dreta de l'Eixample, Eixample, Barcelona, BCN, CAT, 08037, España"", 41.3962106, 2.1621171]"
ES,Barcelona,"['Hotel Margot House', ""46, Passeig de Gràcia, la Dreta de l'Eixample, Eixample, Barcelona, BCN, CAT, 08003, España"", 41.3918805, 2.1660363]"
ES,Barcelona,"['Catalonia Magdalenes', '4, Carrer de les Magdalenes, el Gòtic, Ciutat Vella, Barcelona, BCN, CAT, 08003, España', 41.3861283, 2.1745291]"
ES,Barcelona,"['Ayre Hotel Caspe', '103-109, Carrer de Casp, el Fort Pienc, Eixample, Barcelona, BCN, CAT, 08013, España', 41.3961021, 2.1794688]"
ES,Barcelona,"['Ilunion Almirante', '40, Via Laietana, el Gòtic, Ciutat Vella, Barcelona, BCN, CAT, 08003, España', 41.3860521, 2.176157]"
ES,Barcelona,"['Best Western Premier Hotel Dante', ""181, Carrer de Mallorca, l'Antiga Esquerra de l'Eixample, Eixample, Barcelona, BCN, CAT, 08014, España"", 41.3894195, 2.1564886]"
ES,Barcelona,"['Acevi Villarroel', ""Acevi Villaroel, Carrer de Villarroel, l'Antiga Esquerra de l'Eixample, Eixample, Barcelona, BCN, CAT, 08014, España"", 41.3853781, 2.1567228]"
ES,Barcelona,"['Hotel Miramar Barcelona GL', 'Hotel Miramar Barcelona, Carretera de Miramar, Montjuïc, Sants-Montjuïc, Barcelona, BCN, CAT, 08038, España', 41.3703041, 2.17141]"
ES,Barcelona,"['Majestic Hotel Spa Barcelona GL', ""Majestic Hotel & Spa, 3, Passatge dels Camps Elisis, la Dreta de l'Eixample, Eixample, Barcelona, BCN, CAT, 08003, España"", 41.3935179, 2.1639813]"
ES,Barcelona,"['Catalonia Passeig de Gr cia 4 Sup', ""644, Gran Via de les Corts Catalanes, la Dreta de l'Eixample, Eixample, Barcelona, BCN, CAT, 08003, España"", 41.3901396, 2.1696699]"
ES,Barcelona,"['Eurostars Grand Marina Hotel GL', 'World Trade Center Barcelona, Moll de Barcelona, el Raval, Ciutat Vella, Barcelona, BCN, CAT, 08003, España', 41.371308, 2.181698]"
